    <HTML><HEAD><TITLE>Human Space Flight (HSF) - Realtime Data
    </TITLE>
         
    
    <LINK REL="stylesheet" HREF="/hsf_home_style.css" TYPE="text/css"><LINK REL="stylesheet" HREF="/realdata/tracking/clocks.css" TYPE="text/css"><!--
    ////    *_OVER.JS PROVIDES HTML FOR GRAPHICS    ////
    --><SCRIPT TYPE="text/javascript" LANGUAGE="javascript">
    
      var firstLevel = '<'+'script language="javascript" src="/!_js_files/hsf_realdata_over.js"></'+'script>';
    
    </SCRIPT>
    
    <!--
    ////    *_NAV.JS PROVIDES MOUSEOVERS    ////
    -->
    
    <SCRIPT TYPE="text/javascript" SRC="/!_js_files/hsf_realdata_nav.js" LANGUAGE="javascript"></SCRIPT>
    
      
    <SCRIPT LANGUAGE="javascript">
    <!---
    
    function buildArray(){
    var a = buildArray.arguments;
    for (i=0; i<a.length; i++){
    this[i] = a[i];
    }
    
    this.length = a.length;
    } 
    
    var urls1 = new buildArray("",
    "ksclive/index.html",
    "ksclive/kscv01.html",
    "ksclive/kscv02.html",
    "ksclive/kscv03.html",
    "ksclive/kscv04.html",
    "ksclive/kscv05.html",
    "ksclive/kscv06.html",
    "ksclive/kscv07.html",
    "ksclive/kscv08.html",
    "ksclive/kscv09.html",
    "ksclive/kscv10.html",
    "ksclive/kscv11.html",
    "ksclive/kscv12.html",
    "ksclive/kscv13.html",
    "ksclive/kscv14.html",
    "ksclive/kscv15.html"); 
    
    function go(which, num, win){
    n = which.selectedIndex;
    
    if (n != 0){
    var url = eval("urls" + num + "[n]")
    
    if (win){
    openWindow(url); 
    }
    
    else{ 
    location.href = url;
    }
    }
    }
    
    //-->
    </SCRIPT></HEAD><BODY ALINK="#ff0000" VLINK="#800000" LINK="#cc0000" TEXT="#000000" BGCOLOR="#ffffff" > 
    
    
         
    
    <!-- 
    ////    BEGIN --    ////
    ////    IMAGE MAP FOR 2ND LEVEL MENUS    ////
    -->
    
      <MAP NAME="level2menu"><AREA ONMOUSEOUT="timeoutId = setTimeout('menuLinks(0)',1);" ONMOUSEOVER="clearTimeout (timeoutId);" HREF="" ALT="" COORDS="0,-1,67,26" SHAPE="RECT"><AREA ONMOUSEOUT="timeoutId = setTimeout('menuLinks(0)',1);" ONMOUSEOVER="clearTimeout (timeoutId);" HREF="" ALT="" COORDS="67,-1,134,26" SHAPE="RECT"><AREA ONMOUSEOUT="timeoutId = setTimeout('menuLinks(0)',1);" ONMOUSEOVER="clearTimeout (timeoutId);" HREF="" ALT="" COORDS="134,-1,201,26" SHAPE="RECT"><AREA ONMOUSEOUT="timeoutId = setTimeout('menuLinks(0)',1);" ONMOUSEOVER="clearTimeout (timeoutId);" HREF="" ALT="" COORDS="201,-1,268,26" SHAPE="RECT"><AREA ONMOUSEOUT="timeoutId = setTimeout('menuLinks(0)',1);" ONMOUSEOVER="clearTimeout (timeoutId);" HREF="" ALT="" COORDS="268,-1,335,26" SHAPE="RECT"><AREA ONMOUSEOUT="timeoutId = setTimeout('menuLinks(0)',1);" ONMOUSEOVER="clearTimeout (timeoutId);" HREF="" ALT="" COORDS="335,-1,402,26" SHAPE="RECT"><AREA ONMOUSEOUT="timeoutId = setTimeout('menuLinks(0)',1);" ONMOUSEOVER="clearTimeout (timeoutId);" HREF="" ALT="" COORDS="402,-1,469,26" SHAPE="RECT"><AREA ONMOUSEOUT="timeoutId = setTimeout('menuLinks(0)',1);" ONMOUSEOVER="clearTimeout (timeoutId);" HREF="" ALT="" COORDS="469,-1,536,26" SHAPE="RECT"><AREA ONMOUSEOUT="timeoutId = setTimeout('menuLinks(0)',1);" ONMOUSEOVER="clearTimeout (timeoutId);" HREF="" ALT="" COORDS="536,-1,600,26" SHAPE="RECT"></MAP>
    
    <!-- 
    ////    END --    ////
    ////    IMAGE MAP FOR 2ND LEVEL MENUS    ////
    -->
    
    <TABLE ALIGN="CENTER" BORDER="0" WIDTH="600" CELLPADDING="0" CELLSPACING="0"><TR><TD><IMG USEMAP="#Map" BORDER="0" WIDTH="600" HEIGHT="55" SRC="/graphics/new_home/hsf_hdr_main2.gif"><MAP NAME="Map"><AREA TITLE="Return to Human Space Flight home page" HREF="/index.html" ALT="Return to Human Space Flight home page" COORDS="424,26,587,46" SHAPE="RECT"></MAP></TD></TR><!-- 
    ////    BEGIN -- 1ST LEVEL MENU OPTIONS    ////
    ////    REFERENCES *_OVER.JS WHICH PROVIDES HTML FOR GRAPHICS    ////
    ////    THE VARIABLE firstLevel IS CALLED INSIDE THE HEAD TAG    ////
    --><TR><TD WIDTH="600" VALIGN="TOP" COLSPAN="3"> 
          <SCRIPT LANGUAGE="javascript">
            <!-- 
              document.write(firstLevel)
            //-->
          </SCRIPT></TD></TR><!-- 
    ////    END -- 1ST LEVEL MENU OPTIONS    ////
    --><!-- 
    ////    BEGIN -- 2ND LEVEL MENU OPTIONS    ////
    ////    THIS SECTION CALLS THE MENULINKS FUNCTION    ////
    --><TR><TD WIDTH="600" VALIGN="TOP" COLSPAN="3"><IMG NAME="low1" ALT="" USEMAP="#level2menu" BORDER="0" WIDTH="600" HEIGHT="24" SRC="/graphics/new_home/hsf_l2.gif"></TD></TR><!-- 
    ////    END -- 2ND LEVEL MENU OPTIONS    ////
    --><TR><TD><IMG WIDTH="600" HEIGHT="5" SRC="/graphics/new_home/hsf_hdr_btm.gif"></TD></TR></TABLE><BR><A NAME="skipLinks"></A>
    
    
    <!--Begin Main Content Area Here-->
    
        
    <table width="600" border="0" cellspacing="0" cellpadding="0" align="center">
        
          <tr>
        
            <td>
        
            <PRE>
    
  <B> ISS  TRAJECTORY DATA</B>
 
   Lift off time (UTC)  :  N/A
   Area (sq ft)  :  14248.1877
   Drag Coefficient (Cd)  :   2.00
   Monthly MSFC 50% solar flux (F10.7-jansky)  :   102.5
   Monthly MSFC 50% earth geomagnetic index (Kp)  :   3.055
   ET - UTC  (sec) :   67.18
   UT1 - UTC (sec) :    0.00
 
 
   Maneuvers contained within the current ephemeris are as follows:
 
 
   IMPULSIVE TIG (GMT)   M50 DVx(FPS)      LVLH DVx(FPS)      DVmag(FPS) 
   IMPULSIVE TIG (MET)   M50 DVy(FPS)      LVLH DVy(FPS)      Invar Sph HA
   DT                    M50 DVz(FPS)      LVLH DVz(FPS)      Invar Sph HP 
   ------------------------------------------------------------------------
   090/14:15:30.000           0.0               0.0              0.0    
   N/A                        0.0               0.0              221.1  
   000/00:00:00.000           0.0               0.0              214.2  
   
   091/16:23:58.000           0.0               0.0              0.0    
   N/A                        0.0               0.0              221.2  
   000/00:00:00.000           0.0               0.0              214.1  
   
   093/17:58:46.000           0.0               0.0              0.0    
   N/A                        0.0               0.0              221.2  
   000/00:00:00.000           0.0               0.0              214.0  
   
   094/18:43:00.000           0.0               0.0              0.0    
   N/A                        0.0               0.0              221.2  
   000/00:00:00.000           0.0               0.0              213.9  
   
   098/16:00:00.000           0.0               0.0              0.0    
   N/A                        0.0               0.0              221.2  
   000/00:00:00.000           0.0               0.0              213.8  
   
 
 
    Coasting Arc #1 (Orbit 3242)
    ---------------------------------------
 
    Vector Time (GMT): 2016/088/12:00:00.000
    Vector Time (MET): N/A
    Weight (LBS)     : 919477.5
 
              M50 Cartesian                         M50 Keplerian  
    -----------------------------------       --------------------------------
     X    =        3728422.79                 A    =         6782848.33  meter
     Y    =       -4201710.43  meter          E    =           .0007021
     Z    =       -3809783.13                 I    =           52.00212
     XDOT =       2355.625309                 Wp   =           58.59795
     YDOT =       5930.962282  meter/sec      RA   =           99.59030  deg
     ZDOT =      -4237.970236                 TA   =          166.82223
                                              MA   =          166.80388
                                              Ha   =            221.007  n.mi
                                              Hp   =            214.440
 
              M50 Cartesian                         J2K Cartesian  
    -----------------------------------       --------------------------------
     X    =       12232358.23                 X    =         3793636.69
     Y    =      -13785139.20  feet           Y    =        -4159652.50  meter
     Z    =      -12499288.49                 Z    =        -3791512.40
     XDOT =       7728.429493                 XDOT =        2309.715140
     YDOT =      19458.537669  feet/sec       YDOT =        5957.047301  meter/sec
     ZDOT =     -13904.101823                 ZDOT =       -4226.639248
 
              TDR Cartesian                         TDR Cartesian  
    -----------------------------------       --------------------------------
     X    =       10937958.53                 X    =         3333889.76
     Y    =      -14900282.82  feet           Y    =        -4541606.20  meter
     Z    =      -12419158.53                 Z    =        -3785359.52
     XDOT =       8555.593276                 XDOT =        2607.744830
     YDOT =      17823.111328  feet/sec       YDOT =        5432.484333  meter/sec
     ZDOT =     -13855.876173                 ZDOT =       -4223.271057
  
  
    The mean element set is posted at the UTC for which position is
    just north of the next ascending node relative to the above
    vector time
 
 
    TWO LINE MEAN ELEMENT SET
  
    ISS
    1 25544U 98067A   16088.52407929  .00016717  00000-0  10270-3 0  9008
    2 25544  51.6400 100.3457 0002302   3.7173 356.3996 15.54270295 32439
  
  
    Satellite: ISS
    Catalog Number: 25544
    Epoch time:      16088.52407929   =   yrday.fracday
    Element set:     900
    Inclination:       51.6400  deg
    RA of node:       100.3457  deg
    Eccentricity:     .0002302     
    Arg of perigee:     3.7173  deg
    Mean anomaly:     356.3996  deg
    Mean motion:   15.54270295  rev/day
    Decay rate:    1.67170E-04  rev/day^2
    Epoch rev:            3243
    Checksum:              291
 
 
    Coasting Arc #2 (Orbit 3258)
    ---------------------------------------
 
    Vector Time (GMT): 2016/089/12:00:00.000
    Vector Time (MET): N/A
    Weight (LBS)     : 919477.5
 
